{
  "type": "FeatureCollection",
  "features": [
    {
      "type": "Feature",
      "properties": {
        "norad_id": 34540,
        "name": "IRIDIUM 33 DEB",
        "group": "iridium-33-debris",
        "lat": -54.33905411068507,
        "lon": 130.864040308365,
        "alt_km": 650.9300990391093,
        "timestamp": "2025-12-16T21:38:57.560042+00:00",
        "meta_object_name": "IRIDIUM 33 DEB",
        "meta_object_id": "1997-051JH",
        "meta_epoch": "2025-12-16T08:15:16.014240",
        "meta_mean_motion": 14.75398972,
        "meta_eccentricity": 0.00169966,
        "meta_inclination": 86.3097,
        "meta_ra_of_asc_node": 305.9587,
        "meta_arg_of_pericenter": 146.519,
        "meta_mean_anomaly": 5.2329,
        "meta_ephemeris_type": 0,
        "meta_classification_type": "U",
        "meta_norad_cat_id": 34540,
        "meta_element_set_no": 999,
        "meta_rev_at_epoch": 89074,
        "meta_bstar": 0.0010844818,
        "meta_mean_motion_dot": 7.403e-05,
        "meta_mean_motion_ddot": 0,
        "tle_line1": "1 34540U 97051JH  25350.34393535  .00007403  00000+0  10845-2 0  9991",
        "tle_line2": "2 34540  86.3097 305.9587 0016996 146.5190   5.2329 14.75398972890749"
      },
      "geometry": {
        "type": "Point",
        "coordinates": [
          130.864040308365,
          -54.33905411068507
        ]
      }
    },
    {
      "type": "Feature",
      "properties": {
        "norad_id": 34648,
        "name": "IRIDIUM 33 DEB",
        "group": "iridium-33-debris",
        "lat": 34.74672722992738,
        "lon": 97.7565046272566,
        "alt_km": 952.4872288031811,
        "timestamp": "2025-12-16T21:38:57.560052+00:00",
        "meta_object_name": "IRIDIUM 33 DEB",
        "meta_object_id": "1997-051JZ",
        "meta_epoch": "2025-12-16T05:38:15.208800",
        "meta_mean_motion": 14.116084,
        "meta_eccentricity": 0.01817751,
        "meta_inclination": 86.3907,
        "meta_ra_of_asc_node": 280.5351,
        "meta_arg_of_pericenter": 287.9701,
        "meta_mean_anomaly": 70.1742,
        "meta_ephemeris_type": 0,
        "meta_classification_type": "U",
        "meta_norad_cat_id": 34648,
        "meta_element_set_no": 999,
        "meta_rev_at_epoch": 85010,
        "meta_bstar": 0.0051967883,
        "meta_mean_motion_dot": 0.00011052,
        "meta_mean_motion_ddot": 0,
        "tle_line1": "1 34648U 97051JZ  25350.23489825  .00011052  00000+0  51968-2 0  9992",
        "tle_line2": "2 34648  86.3907 280.5351 0181775 287.9701  70.1742 14.11608400850107"
      },
      "geometry": {
        "type": "Point",
        "coordinates": [
          97.7565046272566,
          34.74672722992738
        ]
      }
    },
    {
      "type": "Feature",
      "properties": {
        "norad_id": 34651,
        "name": "IRIDIUM 33 DEB",
        "group": "iridium-33-debris",
        "lat": 56.43661387607869,
        "lon": 144.42991396202916,
        "alt_km": 870.4556161461751,
        "timestamp": "2025-12-16T21:38:57.560062+00:00",
        "meta_object_name": "IRIDIUM 33 DEB",
        "meta_object_id": "1997-051KC",
        "meta_epoch": "2025-12-15T16:44:43.264608",
        "meta_mean_motion": 14.2586969,
        "meta_eccentricity": 0.01422111,
        "meta_inclination": 86.2826,
        "meta_ra_of_asc_node": 139.319,
        "meta_arg_of_pericenter": 194.5813,
        "meta_mean_anomaly": 165.1258,
        "meta_ephemeris_type": 0,
        "meta_classification_type": "U",
        "meta_norad_cat_id": 34651,
        "meta_element_set_no": 999,
        "meta_rev_at_epoch": 85938,
        "meta_bstar": 0.0022485877,
        "meta_mean_motion_dot": 5.97e-05,
        "meta_mean_motion_ddot": 0,
        "tle_line1": "1 34651U 97051KC  25349.69772297  .00005970  00000+0  22486-2 0  9997",
        "tle_line2": "2 34651  86.2826 139.3190 0142211 194.5813 165.1258 14.25869690859382"
      },
      "geometry": {
        "type": "Point",
        "coordinates": [
          144.42991396202916,
          56.43661387607869
        ]
      }
    },
    {
      "type": "Feature",
      "properties": {
        "norad_id": 34652,
        "name": "IRIDIUM 33 DEB",
        "group": "iridium-33-debris",
        "lat": -68.74651694376973,
        "lon": -31.34620292241565,
        "alt_km": 675.7775846846062,
        "timestamp": "2025-12-16T21:38:57.560072+00:00",
        "meta_object_name": "IRIDIUM 33 DEB",
        "meta_object_id": "1997-051KD",
        "meta_epoch": "2025-12-15T23:06:17.407008",
        "meta_mean_motion": 14.62091259,
        "meta_eccentricity": 0.00256988,
        "meta_inclination": 86.3313,
        "meta_ra_of_asc_node": 338.5668,
        "meta_arg_of_pericenter": 286.4484,
        "meta_mean_anomaly": 103.3861,
        "meta_ephemeris_type": 0,
        "meta_classification_type": "U",
        "meta_norad_cat_id": 34652,
        "meta_element_set_no": 999,
        "meta_rev_at_epoch": 88531,
        "meta_bstar": 0.00069351395,
        "meta_mean_motion_dot": 3.52e-05,
        "meta_mean_motion_ddot": 0,
        "tle_line1": "1 34652U 97051KD  25349.96270147  .00003520  00000+0  69351-3 0  9997",
        "tle_line2": "2 34652  86.3313 338.5668 0025698 286.4484 103.3861 14.62091259885317"
      },
      "geometry": {
        "type": "Point",
        "coordinates": [
          -31.34620292241565,
          -68.74651694376973
        ]
      }
    },
    {
      "type": "Feature",
      "properties": {
        "norad_id": 34690,
        "name": "IRIDIUM 33 DEB",
        "group": "iridium-33-debris",
        "lat": 49.28212867196238,
        "lon": 39.40297883875344,
        "alt_km": 698.4679967116917,
        "timestamp": "2025-12-16T21:38:57.560082+00:00",
        "meta_object_name": "IRIDIUM 33 DEB",
        "meta_object_id": "1997-051KM",
        "meta_epoch": "2025-12-16T03:33:18.595296",
        "meta_mean_motion": 14.5510883,
        "meta_eccentricity": 0.00104314,
        "meta_inclination": 86.3783,
        "meta_ra_of_asc_node": 35.5104,
        "meta_arg_of_pericenter": 18.4807,
        "meta_mean_anomaly": 44.1375,
        "meta_ephemeris_type": 0,
        "meta_classification_type": "U",
        "meta_norad_cat_id": 34690,
        "meta_element_set_no": 999,
        "meta_rev_at_epoch": 88144,
        "meta_bstar": 0.00031614204,
        "meta_mean_motion_dot": 1.386e-05,
        "meta_mean_motion_ddot": 0,
        "tle_line1": "1 34690U 97051KM  25350.14813189  .00001386  00000+0  31614-3 0  9999",
        "tle_line2": "2 34690  86.3783  35.5104 0010431  18.4807  44.1375 14.55108830881448"
      },
      "geometry": {
        "type": "Point",
        "coordinates": [
          39.40297883875344,
          49.28212867196238
        ]
      }
    },
    {
      "type": "Feature",
      "properties": {
        "norad_id": 34693,
        "name": "IRIDIUM 33 DEB",
        "group": "iridium-33-debris",
        "lat": 64.15052990469428,
        "lon": 114.08799636983873,
        "alt_km": 469.9657668360878,
        "timestamp": "2025-12-16T21:38:57.560093+00:00",
        "meta_object_name": "IRIDIUM 33 DEB",
        "meta_object_id": "1997-051KQ",
        "meta_epoch": "2025-12-16T07:40:26.032800",
        "meta_mean_motion": 15.28808586,
        "meta_eccentricity": 0.00128069,
        "meta_inclination": 86.304,
        "meta_ra_of_asc_node": 302.0453,
        "meta_arg_of_pericenter": 47.13,
        "meta_mean_anomaly": 105.506,
        "meta_ephemeris_type": 0,
        "meta_classification_type": "U",
        "meta_norad_cat_id": 34693,
        "meta_element_set_no": 999,
        "meta_rev_at_epoch": 88969,
        "meta_bstar": 0.0034849986,
        "meta_mean_motion_dot": 0.0009889,
        "meta_mean_motion_ddot": 0,
        "tle_line1": "1 34693U 97051KQ  25350.31974575  .00098890  00000+0  34850-2 0  9998",
        "tle_line2": "2 34693  86.3040 302.0453 0012806  47.1300 105.5060 15.28808586889695"
      },
      "geometry": {
        "type": "Point",
        "coordinates": [
          114.08799636983873,
          64.15052990469428
        ]
      }
    },
    {
      "type": "Feature",
      "properties": {
        "norad_id": 34696,
        "name": "IRIDIUM 33 DEB",
        "group": "iridium-33-debris",
        "lat": -20.81273912992145,
        "lon": 24.132923544797407,
        "alt_km": 733.3213080490696,
        "timestamp": "2025-12-16T21:38:57.560103+00:00",
        "meta_object_name": "IRIDIUM 33 DEB",
        "meta_object_id": "1997-051KT",
        "meta_epoch": "2025-12-16T02:20:41.724096",
        "meta_mean_motion": 14.6527848,
        "meta_eccentricity": 0.00739247,
        "meta_inclination": 86.1857,
        "meta_ra_of_asc_node": 25.9602,
        "meta_arg_of_pericenter": 156.1552,
        "meta_mean_anomaly": 262.9531,
        "meta_ephemeris_type": 0,
        "meta_classification_type": "U",
        "meta_norad_cat_id": 34696,
        "meta_element_set_no": 999,
        "meta_rev_at_epoch": 86722,
        "meta_bstar": 0.0030139248,
        "meta_mean_motion_dot": 0.00016962,
        "meta_mean_motion_ddot": 0,
        "tle_line1": "1 34696U 97051KT  25350.09770514  .00016962  00000+0  30139-2 0  9999",
        "tle_line2": "2 34696  86.1857  25.9602 0073924 156.1552 262.9531 14.65278480867227"
      },
      "geometry": {
        "type": "Point",
        "coordinates": [
          24.132923544797407,
          -20.81273912992145
        ]
      }
    }
  ]
}